OBJECT_NAME,OBJECT_ID,EPOCH,MEAN_MOTION,ECCENTRICITY,INCLINATION,RA_OF_ASC_NODE,ARG_OF_PERICENTER,MEAN_ANOMALY,EPHEMERIS_TYPE,CLASSIFICATION_TYPE,NORAD_CAT_ID,ELEMENT_SET_NO,REV_AT_EPOCH,BSTAR,MEAN_MOTION_DOT,MEAN_MOTION_DDOT
CUTE-1 (CO-55),2003-031E,2026-07-18T07:08:10.116384,14.24352673,.00108679,98.6744,207.4657,94.6885,265.5536,0,U,27844,999,19610,.74435316E-4,.128E-5,0
CUBESAT XI-IV (CO-57),2003-031J,2026-07-17T22:48:02.109024,14.23635431,.00106323,98.6776,206.8106,112.1739,248.0569,0,U,27848,999,19575,.66203101E-4,.107E-5,0
CUBESAT XI-V,2005-043F,2026-07-18T09:14:49.557120,14.72706792,.00153208,98.3020,355.6693,105.9745,254.3151,0,U,28895,999,10634,.10630429E-3,.626E-5,0
CUTE-1.7+APD II (CO-65),2008-021C,2026-07-18T20:47:33.918720,15.09718955,.00068339,97.8299,181.9540,284.1756,75.8712,0,U,32785,999,98997,.12990002E-3,.2027E-4,0
CANX-2,2008-021H,2026-07-18T22:05:34.795104,15.05816802,.00086269,97.8658,180.3233,303.0862,56.9536,0,U,32790,999,98958,.95612674E-4,.1322E-4,0
SEEDS II (CO-66),2008-021J,2026-07-18T11:04:04.594656,15.33733639,.00034594,97.7530,198.8780,149.6253,210.5190,0,U,32791,999,99208,.29893879E-3,.967E-4,0
SWISSCUBE,2009-051B,2026-07-18T17:00:12.313440,14.62534308,.00079827,98.4003,108.1426,109.6999,250.5063,0,U,35932,999,89376,.93581583E-4,.425E-5,0
BEESAT-1,2009-051C,2026-07-18T17:37:32.795040,14.61764858,.00062948,98.3929,107.7381,120.7003,239.4819,0,U,35933,999,89379,.78835638E-4,.344E-5,0
ITUPSAT1,2009-051E,2026-07-18T16:25:36.806592,14.60481463,.00082886,98.4014,106.8454,133.4128,226.7763,0,U,35935,999,89333,.75415059E-4,.317E-5,0
TISAT 1,2010-035E,2026-07-18T18:56:09.485088,15.32815987,.00047022,98.0714,149.1728,112.8367,247.3370,0,U,36799,999,87254,.36422326E-3,.11463E-3,0
STRAND-1,2013-009E,2026-07-18T17:36:34.309152,14.37180014,.0009578,98.3938,19.1941,131.5645,228.6365,0,U,39090,999,70159,.48977555E-4,.103E-5,0
BRITE-AUSTRIA,2013-009F,2026-07-18T11:33:38.756448,14.36553265,.00109399,98.4011,18.1453,141.4907,218.7063,0,U,39091,999,70154,.35785691E-4,.62E-6,0
NEE-01 PEGASO,2013-018B,2026-07-18T08:20:42.859392,14.93797792,.00136034,98.1262,344.5370,65.0738,295.1893,0,U,39151,999,71535,.14351054E-3,.1462E-4,0
POPACS 2,2013-055E,2026-07-18T18:31:57.433728,14.92117580,.04146118,80.9910,108.0235,92.4092,272.4645,0,U,39269,999,66792,.22904069E-3,.14075E-3,-.928151E-6
POPACS 3,2013-055F,2026-07-18T07:24:03.271680,14.56710923,.05483759,81.0005,195.4250,335.1698,22.3977,0,U,39270,999,64308,.1794019E-3,.7544E-4,0
ZACUBE-1 (TSHEPISOSAT),2013-066B,2026-07-18T20:48:28.769760,15.01338468,.00440642,97.8003,162.3585,143.4154,217.0094,0,U,39417,999,68548,.10186605E-3,.1274E-4,0
WNISAT-1,2013-066H,2026-07-18T20:20:00.157920,14.58124563,.0164073,97.7241,346.7625,131.8801,229.6533,0,U,39423,999,67134,.10865159E-3,.555E-5,0
TRITON-1,2013-066M,2026-07-18T21:35:04.640064,14.81801609,.0090847,97.8219,108.9816,130.1851,230.7360,0,U,39427,999,67878,.92675092E-4,.729E-5,0
GOMX-1,2013-066Q,2026-07-18T20:21:07.898976,14.69547400,.0127919,97.6463,38.3123,336.4536,23.0846,0,U,39430,999,67456,.99249838E-4,.614E-5,0
CUBEBUG-2 (LO-74),2013-066AA,2026-07-18T19:29:11.012928,14.93981472,.00555757,97.8920,148.9319,283.1152,76.3869,0,U,39440,999,68171,.17796214E-3,.1891E-4,0
NEE-02 KRYSAOR,2013-066AB,2026-07-18T18:35:55.146048,14.86747130,.006512,97.8896,138.7683,327.4337,32.2869,0,U,39441,999,68089,.11341342E-3,.989E-5,0
FUNCUBE-1 (AO-73),2013-066AE,2026-07-18T20:54:53.730144,15.09848087,.0037964,97.8298,171.9904,95.7411,264.8148,0,U,39444,999,68444,.27858979E-3,.4515E-4,0
UWE-3,2013-066AG,2026-07-18T19:53:41.818272,14.97214313,.0047627,97.8721,156.1237,212.0168,147.8158,0,U,39446,999,68231,.18604253E-3,.2139E-4,0
BRITE-CA1 (TORONTO),2014-033L,2026-07-18T21:40:55.874208,14.72726843,.00787542,97.9776,328.2536,174.3960,185.8147,0,U,40020,999,64688,.86046559E-4,.523E-5,0
DUCHIFAT-1,2014-033M,2026-07-18T16:08:38.936832,15.71696006,.00031533,98.0415,263.4357,232.8599,127.2374,0,U,40021,999,66068,.72508872E-3,.94147E-3,0
NANOSATC-BR1,2014-033Q,2026-07-18T19:39:21.241440,15.32398569,.00051169,98.0707,235.0319,87.9134,272.2692,0,U,40024,999,65882,.3004868E-3,.9316E-4,0
QB50P1,2014-033R,2026-07-18T07:39:18.658080,15.18693321,.0010487,98.0968,212.6585,115.5699,244.6619,0,U,40025,999,65775,.21985551E-3,.4488E-4,0
QB50P2,2014-033Y,2026-07-18T19:05:38.214816,15.15534284,.00092284,98.0769,198.6548,73.8940,286.3306,0,U,40032,999,65745,.19123875E-3,.3553E-4,0
PERSEUS-M2,2014-033AD,2026-07-18T21:50:57.227712,14.95592301,.00111904,97.9986,151.1025,187.0853,173.0211,0,U,40037,999,65552,.9526458E-5,.45E-6,0
PERSEUS-M1,2014-033AF,2026-07-18T19:31:59.435040,14.95722381,.00111566,97.9655,144.4689,184.3661,175.7464,0,U,40039,999,65536,.5438067E-4,.545E-5,0
